{
 "type": "FeatureCollection",
 "features": [
  {
   "type": "Feature",
   "id": "6442021BC5964S.parcel.0",
   "geometry": {
    "type": "Polygon",
    "coordinates": [
     [
      [
       0.195341,
       38.760142
      ],
      [
       0.195162,
       38.760094
      ],
      [
       0.195072,
       38.76007
      ],
      [
       0.195017,
       38.76007
      ],
      [
       0.194947,
       38.760083
      ],
      [
       0.194753,
       38.760184
      ],
      [
       0.194932,
       38.760409
      ],
      [
       0.194936,
       38.760407
      ],
      [
       0.194986,
       38.760388
      ],
      [
       0.195014,
       38.760377
      ],
      [
       0.19507,
       38.760356
      ],
      [
       0.195195,
       38.760292
      ],
      [
       0.195215,
       38.760281
      ],
      [
       0.19522,
       38.760279
      ],
      [
       0.195324,
       38.760224
      ],
      [
       0.195328,
       38.760223
      ],
      [
       0.195328,
       38.760219
      ],
      [
       0.195334,
       38.760183
      ],
      [
       0.195336,
       38.760169
      ],
      [
       0.195341,
       38.760142
      ]
     ]
    ]
   },
   "properties": {
    "soort": "perceel",
    "refcat": "6442021BC5964S",
    "oppervlakte_m2_wfs": 1151,
    "oppervlakte_m2_dnprc": 1151,
    "oppervlakte_m2_berekend": 1151.4
   }
  },
  {
   "type": "Feature",
   "id": "6442021BC5964S.gebouw.0",
   "geometry": {
    "type": "Polygon",
    "coordinates": [
     [
      [
       0.194917,
       38.760219
      ],
      [
       0.194964,
       38.76027
      ],
      [
       0.194996,
       38.760252
      ],
      [
       0.195081,
       38.760205
      ],
      [
       0.19506,
       38.760183
      ],
      [
       0.195013,
       38.760131
      ],
      [
       0.194999,
       38.760139
      ],
      [
       0.194989,
       38.760128
      ],
      [
       0.194957,
       38.760147
      ],
      [
       0.194933,
       38.76016
      ],
      [
       0.194887,
       38.760186
      ],
      [
       0.194853,
       38.76015
      ],
      [
       0.194797,
       38.760181
      ],
      [
       0.194861,
       38.760251
      ],
      [
       0.194917,
       38.760219
      ]
     ]
    ]
   },
   "properties": {
    "soort": "gebouw",
    "refcat": "6442021BC5964S",
    "bouwjaar": "2005"
   }
  },
  {
   "type": "Feature",
   "id": "6442021BC5964S.bouwdeel.0",
   "geometry": {
    "type": "Polygon",
    "coordinates": [
     [
      [
       0.194943,
       38.760171
      ],
      [
       0.194897,
       38.760197
      ],
      [
       0.194917,
       38.760219
      ],
      [
       0.194949,
       38.760201
      ],
      [
       0.194976,
       38.76023
      ],
      [
       0.19506,
       38.760183
      ],
      [
       0.195013,
       38.760131
      ],
      [
       0.194999,
       38.760139
      ],
      [
       0.194989,
       38.760128
      ],
      [
       0.194957,
       38.760147
      ],
      [
       0.19497,
       38.760161
      ],
      [
       0.194947,
       38.760174
      ],
      [
       0.194943,
       38.760171
      ]
     ]
    ]
   },
   "properties": {
    "soort": "bouwdeel",
    "refcat": "6442021BC5964S",
    "bouwjaar": "2005"
   }
  },
  {
   "type": "Feature",
   "id": "6442021BC5964S.bouwdeel.1",
   "geometry": {
    "type": "Polygon",
    "coordinates": [
     [
      [
       0.194976,
       38.76023
      ],
      [
       0.194949,
       38.760201
      ],
      [
       0.194917,
       38.760219
      ],
      [
       0.194964,
       38.76027
      ],
      [
       0.194996,
       38.760252
      ],
      [
       0.194976,
       38.76023
      ]
     ]
    ]
   },
   "properties": {
    "soort": "bouwdeel",
    "refcat": "6442021BC5964S",
    "bouwjaar": "2005"
   }
  },
  {
   "type": "Feature",
   "id": "6442021BC5964S.bouwdeel.2",
   "geometry": {
    "type": "Polygon",
    "coordinates": [
     [
      [
       0.194957,
       38.760147
      ],
      [
       0.194933,
       38.76016
      ],
      [
       0.194943,
       38.760171
      ],
      [
       0.194947,
       38.760174
      ],
      [
       0.19497,
       38.760161
      ],
      [
       0.194957,
       38.760147
      ]
     ]
    ]
   },
   "properties": {
    "soort": "bouwdeel",
    "refcat": "6442021BC5964S",
    "bouwjaar": "2005"
   }
  },
  {
   "type": "Feature",
   "id": "6442021BC5964S.bouwdeel.3",
   "geometry": {
    "type": "Polygon",
    "coordinates": [
     [
      [
       0.19506,
       38.760183
      ],
      [
       0.194976,
       38.76023
      ],
      [
       0.194996,
       38.760252
      ],
      [
       0.195081,
       38.760205
      ],
      [
       0.19506,
       38.760183
      ]
     ]
    ]
   },
   "properties": {
    "soort": "bouwdeel",
    "refcat": "6442021BC5964S",
    "bouwjaar": "2005"
   }
  },
  {
   "type": "Feature",
   "id": "6442021BC5964S.bouwdeel.4",
   "geometry": {
    "type": "Polygon",
    "coordinates": [
     [
      [
       0.194933,
       38.76016
      ],
      [
       0.194887,
       38.760186
      ],
      [
       0.194853,
       38.76015
      ],
      [
       0.194797,
       38.760181
      ],
      [
       0.194861,
       38.760251
      ],
      [
       0.194917,
       38.760219
      ],
      [
       0.194897,
       38.760197
      ],
      [
       0.194943,
       38.760171
      ],
      [
       0.194933,
       38.76016
      ]
     ]
    ]
   },
   "properties": {
    "soort": "bouwdeel",
    "refcat": "6442021BC5964S",
    "bouwjaar": "2005"
   }
  },
  {
   "type": "Feature",
   "id": "6442021BC5964S.bijwerk.0",
   "geometry": {
    "type": "Polygon",
    "coordinates": [
     [
      [
       0.195202,
       38.76022
      ],
      [
       0.195216,
       38.760224
      ],
      [
       0.195234,
       38.760218
      ],
      [
       0.195241,
       38.760205
      ],
      [
       0.195251,
       38.760201
      ],
      [
       0.19527,
       38.760196
      ],
      [
       0.195281,
       38.760191
      ],
      [
       0.195282,
       38.760178
      ],
      [
       0.195278,
       38.760165
      ],
      [
       0.195269,
       38.760158
      ],
      [
       0.195253,
       38.76016
      ],
      [
       0.195237,
       38.76017
      ],
      [
       0.195223,
       38.760181
      ],
      [
       0.195218,
       38.760179
      ],
      [
       0.195205,
       38.760178
      ],
      [
       0.195191,
       38.760185
      ],
      [
       0.195191,
       38.760189
      ],
      [
       0.195193,
       38.760208
      ],
      [
       0.195202,
       38.76022
      ]
     ]
    ]
   },
   "properties": {
    "soort": "bijwerk",
    "refcat": "6442021BC5964S",
    "bouwjaar": "2005"
   }
  }
 ],
 "metadata": {
  "referencia_catastral": "6442021BC5964S",
  "bron": "Direccion General del Catastro (INSPIRE WFS + OVC)",
  "opgehaald": "2026-09-18"
 }
}